STARLINK-4328           
1 53071U 22077AE  25031.75312015  .00001731  00000+0  13937-3 0  9996
2 53071  97.6533 215.3182 0001742  93.8242 266.3181 15.01258011140618
STARLINK-4344           
1 53072U 22077AF  25032.08264142 -.00001628  00000+0 -12214-3 0  9995
2 53072  97.6549 215.6604 0000632 118.9546 241.1742 15.01269301141249
STARLINK-4346           
1 53073U 22077AG  25031.95259201  .00089204  00000+0  67385-2 0  9993
2 53073  97.6549 215.5116 0001954 346.3467  13.7704 15.01953642141221
STARLINK-4310           
1 53074U 22077AH  25031.75680792  .00011352  00000+0  88663-3 0  9997
2 53074  97.6534 215.3171 0001733  89.4796 270.6627 15.01276675140614
STARLINK-4348           
1 53075U 22077AJ  25032.08449385  .00000900  00000+0  74663-4 0  9999
2 53075  97.6545 215.6338 0000269 120.1321 239.9930 15.01259932141247
STARLINK-4347           
1 53076U 22077AK  25032.01623593 -.00001741  00000+0 -13100-3 0  9992
2 53076  97.6543 215.5823 0000314 105.2821 254.8437 15.01263918141230
STARLINK-4322           
1 53078U 22077AM  25032.21411129  .00007339  00000+0  57523-3 0  9990
2 53078  97.6540 215.7733 0000459  97.9678 262.1598 15.01270252141260
STARLINK-4327           
1 53079U 22077AN  25031.94193034  .00000172  00000+0  17941-4 0  9991
2 53079  97.6538 215.5024 0000430 149.3044 210.8205 15.01258193140643
STARLINK-4330           
1 53080U 22077AP  25031.94563269  .00000130  00000+0  14735-4 0  9996
2 53080  97.6546 215.5078 0000196 103.2062 256.9184 15.01258999140642
STARLINK-4326           
1 53081U 22077AQ  25031.94588640 -.00001743  00000+0 -13117-3 0  9992
2 53081  97.6542 215.4900 0000409 181.8976 178.2247 15.01245786140641
STARLINK-4321           
1 53082U 22077AR  25031.47351055  .00000035  00000+0  73596-5 0  9999
2 53082  97.6549 215.0417 0001927 211.5843 148.5266 15.01258775140573
STARLINK-4251           
1 53083U 22077AS  25031.46056937  .00000999  00000+0  82380-4 0  9999
2 53083  97.6581 215.0371 0001332 144.0582 216.0732 15.01255553140579
STARLINK-4319           
1 53084U 22077AT  25032.07151361 -.00000319  00000+0 -20234-4 0  9993
2 53084  97.6485 215.6240 0002855 183.2753 176.8453 15.01268885141240
STARLINK-4324           
1 53085U 22077AU  25031.46630968 -.00001333  00000+0 -99175-4 0  9998
2 53085  97.6541 215.0394 0001207 170.7376 189.3871 15.01259905140571
STARLINK-4318           
1 53086U 22077AV  25031.46981704  .00000124  00000+0  14233-4 0  9993
2 53086  97.6549 215.0373 0001676 212.6914 147.4207 15.01256161140570
STARLINK-4329           
1 53087U 22077AW  25031.93423411  .00005466  00000+0  42870-3 0  9993
2 53087  97.6530 215.4872 0001462 213.5081 146.6051 15.01362320140648
STARLINK-4333           
1 53088U 22077AX  25031.93312761 -.00024475  00000+0 -19385-2 0  9996
2 53088  97.6548 215.4950 0002009  88.8341 271.3113 15.00645197141220
STARLINK-4063           
1 53132U 22083A   25031.78879192  .00002183  00000+0  15511-3 0  9990
2 53132  53.2164 178.3215 0001159  73.3002 286.8117 15.08855121140548
STARLINK-4150           
1 53134U 22083C   25031.66366967  .00001263  00000+0  97412-4 0  9999
2 53134  53.2149 178.8858 0001408  85.8859 274.2294 15.08841103140526
STARLINK-4023           
1 53135U 22083D   25031.67102921  .00000898  00000+0  74521-4 0  9998
2 53135  53.2162 178.8513 0001425  85.3501 274.7654 15.08839811141516
STARLINK-4152           
1 53136U 22083E   25031.79982563  .00001273  00000+0  98040-4 0  9990
2 53136  53.2136 178.2724 0001251  87.4076 272.7059 15.08843985141539
STARLINK-4145           
1 53137U 22083F   25031.65999375 -.00000176  00000+0  70274-5 0  9997
2 53137  53.2242 178.9005 0000432 106.8173 253.2866 15.08836191140520
STARLINK-4141           
1 53138U 22083G   25031.65862168  .00004003  00000+0  26939-3 0  9996
2 53138  53.2214 174.0882 0001068 268.1918  91.8952 15.08847971141368
STARLINK-4185           
1 53139U 22083H   25031.78144861 -.00000891  00000+0 -37894-4 0  9990
2 53139  53.2148 178.3569 0001471  91.5969 268.5192 15.08826813140546
STARLINK-4170           
1 53140U 22083J   25031.78511716  .00000141  00000+0  26975-4 0  9993
2 53140  53.2162 178.3395 0001998  71.6063 288.5146 15.08843041140542
STARLINK-4103           
1 53141U 22083K   25031.70046497  .00001295  00000+0  99424-4 0  9995
2 53141  53.2190 178.7213 0002098  97.3267 262.7964 15.08843930140538
STARLINK-4101           
1 53142U 22083L   25031.37757966  .00000061  00000+0  21939-4 0  9995
2 53142  53.2162 180.1416 0001047  79.9218 280.1893 15.08840359140497
STARLINK-4102           
1 53143U 22083M   25031.76303155  .00001036  00000+0  83192-4 0  9998
2 53143  53.2157 178.4386 0001300  92.6261 267.4880 15.08837867140540
STARLINK-4100           
1 53144U 22083N   25031.84032434  .00000977  00000+0  79494-4 0  9990
2 53144  53.2150 178.1003 0001462  90.1191 269.9968 15.08817527140557
STARLINK-4106           
1 53145U 22083P   25031.68943043  .00000018  00000+0  19194-4 0  9997
2 53145  53.2183 178.7696 0001496  92.5341 267.5823 15.08841919140532
STARLINK-4099           
1 53146U 22083Q   25031.83663570  .00001344  00000+0  10255-3 0  9990
2 53146  53.2156 178.1091 0001307  89.0101 271.1040 15.08837151140559
STARLINK-4094           
1 53147U 22083R   25031.68575315  .00000494  00000+0  49136-4 0  9999
2 53147  53.2150 178.7836 0001413  89.7121 270.4033 15.08834190141188
STARLINK-4021           
1 53149U 22083T   25031.77964764  .00000915  00000+0  75548-4 0  9995
2 53149  53.2140 168.5625 0001397 100.0054 260.1096 15.08841982140681
STARLINK-4038           
1 53150U 22083U   25031.80075085  .00001206  00000+0  93855-4 0  9995
2 53150  53.2183 168.2678 0001111  86.9762 273.1358 15.08841504141313
STARLINK-4040           
1 53151U 22083V   25031.65722798  .00000077  00000+0  22920-4 0  9999
2 53151  53.2162 168.9103 0001434  95.9260 264.1895 15.08841956140666
STARLINK-4045           
1 53152U 22083W   25031.79706782  .00000486  00000+0  48622-4 0  9991
2 53152  53.2176 168.2820 0001404  94.4463 265.6689 15.08839002141316
STARLINK-4098           
1 53153U 22083X   25031.78602730  .00005014  00000+0  33288-3 0  9992
2 53153  53.2180 168.3332 0001281  44.9185 315.1911 15.08840855140681
STARLINK-4077           
1 53154U 22083Y   25031.52843214  .00000086  00000+0  23470-4 0  9996
2 53154  53.2178 169.4892 0001458  93.4386 266.6773 15.08837874140649
STARLINK-4088           
1 53155U 22083Z   25031.77866878 -.00000300  00000+0 -73173-6 0  9993
2 53155  53.2163 168.3697 0001372  87.6904 272.4246 15.08839272141321
STARLINK-4087           
1 53156U 22083AA  25031.63513809  .00000150  00000+0  27537-4 0  9994
2 53156  53.2184 168.8898 0001348  92.3105 267.8042 15.08838812141299
STARLINK-4093           
1 53157U 22083AB  25031.77133370  .00000128  00000+0  26156-4 0  9992
2 53157  53.2148 168.3989 0001712  93.2324 266.8864 15.08832501140686
STARLINK-4054           
1 53158U 22083AC  25031.78234189 -.00000519  00000+0 -14536-4 0  9999
2 53158  53.2157 168.3540 0001536  85.1430 274.9737 15.08834255140689
STARLINK-4111           
1 53159U 22083AD  25031.63147214  .00002095  00000+0  14971-3 0  9997
2 53159  53.2139 169.0316 0001521  90.3245 269.7921 15.08836872140667
STARLINK-4096           
1 53160U 22083AE  25031.64251013  .00003170  00000+0  21715-3 0  9992
2 53160  53.2170 168.9798 0001396  86.2937 273.8215 15.08838325140665
STARLINK-4055           
1 53161U 22083AF  25030.09689436 -.00002606  00000+0 -14568-3 0  9998
2 53161  53.2159 175.9181 0001152  83.0496 277.0627 15.08839708140436
STARLINK-4114           
1 53162U 22083AG  25031.76858745  .00000456  00000+0  46758-4 0  9991
2 53162  53.2168 168.4253 0001373  88.2284 271.8865 15.08842460140683
STARLINK-4104           
1 53163U 22083AH  25031.42909882  .00001509  00000+0  11285-3 0  9990
2 53163  53.2155 170.0823 0001358  87.2217 272.8930 15.08852438140635
STARLINK-4116           
1 53164U 22083AJ  25031.35916923 -.00005535  00000+0 -32994-3 0  9992
2 53164  53.2167 170.2520 0001197  91.5763 268.5366 15.08837078140627
STARLINK-4090           
1 53165U 22083AK  25031.74187143  .00001099  00000+0  87150-4 0  9994
2 53165  53.2177 168.5333 0001038  83.0307 277.0803 15.08839585140687
STARLINK-4110           
1 53166U 22083AL  25031.73913337  .00001349  00000+0  10280-3 0  9993
2 53166  53.2161 168.4421 0001052  69.5224 290.5881 15.08840495140689
STARLINK-3683           
1 53167U 22083AM  25031.62733119  .00000465  00000+0  47324-4 0  9998
2 53167  53.2157 154.0367 0001266  94.5770 265.5367 15.08836889140869
STARLINK-4105           
1 53168U 22083AN  25031.81179380 -.00000219  00000+0  43617-5 0  9994
2 53168  53.2181 168.2222 0001762  96.3533 263.7660 15.08840161140697
STARLINK-4117           
1 53169U 22083AP  25031.60528231  .00003102  00000+0  21295-3 0  9994
2 53169  53.2140 154.4054 0001134  89.8648 270.2474 15.08833613140858
STARLINK-4095           
1 53170U 22083AQ  25031.64112525  .00001048  00000+0  83903-4 0  9997
2 53170  53.2165 163.9374 0001358  95.3115 264.8032 15.08836698140738
STARLINK-4052           
1 53171U 22083AR  25031.68204942  .00000322  00000+0  38359-4 0  9996
2 53171  53.2161 138.5617 0001807 105.3197 254.7995 15.08842140141729
STARLINK-4299           
1 53172U 22083AS  25031.63376000  .00001070  00000+0  85287-4 0  9990
2 53172  53.2151 163.9322 0001460  88.2180 271.8980 15.08841242140725
STARLINK-4300           
1 53173U 22083AT  25031.72025072 -.00000210  00000+0  48742-5 0  9993
2 53173  53.2169 143.6205 0001425  92.9915 267.1241 15.08840890141018
STARLINK-4205           
1 53174U 22083AU  25031.80813747  .00000941  00000+0  77231-4 0  9991
2 53174  53.2158 178.1663 0001529  92.7445 267.3722 15.08841704140547
STARLINK-4292           
1 53175U 22083AV  25031.81087221 -.00000733  00000+0 -27957-4 0  9994
2 53175  53.2164 178.2207 0001447 100.2703 259.8453 15.08833933141184
